start=new Date('2022-07-14T00:00:00.000Z').valueOf();
sats=[{"APOAPSIS":"540.990","REF_FRAME":"TEME","SITE":"AFWTR","TIME_SYSTEM":"UTC","ARG_OF_PERICENTER":"45.0969","ELEMENT_SET_NO":"999","LAUNCH_DATE":"2022-02-25","OBJECT_NAME":"STARLINK-3637","GP_ID":"208068685","CLASSIFICATION_TYPE":"U","TLE_LINE1":"1 51799U 22017AH  22194.91667824  .00038241  00000-0  24098-2 0  9997","PERIOD":"95.439","DECAY_DATE":null,"RCS_SIZE":"LARGE","CENTER_NAME":"EARTH","RA_OF_ASC_NODE":"221.1545","INCLINATION":"53.2160","MEAN_MOTION_DDOT":"0.0000000000000","MEAN_MOTION":"15.08810410","REV_AT_EPOCH":"130","EPHEMERIS_TYPE":"0","OBJECT_ID":"2022-017AH","TLE_LINE2":"2 51799  53.2160 221.1545 0001669  45.0969 120.9432 15.08810410  1308","MEAN_ELEMENT_THEORY":"SGP4","FILE":"3513188","NORAD_CAT_ID":"51799","MEAN_MOTION_DOT":"0.00038241","OBJECT_TYPE":"PAYLOAD","EPOCH":"2022-07-13T22:00:00.999936","SEMIMAJOR_AXIS":"6917.971","BSTAR":"0.00240980000000","MEAN_ANOMALY":"120.9432","PERIAPSIS":"538.681","ECCENTRICITY":"0.00016690","COUNTRY_CODE":"US"},{"REF_FRAME":"TEME","APOAPSIS":"541.068","GP_ID":"208068430","PERIOD":"95.441","TLE_LINE1":"1 51800U 22017AJ  22194.91667824  .00040969  00000-0  25808-2 0  9990","DECAY_DATE":null,"CLASSIFICATION_TYPE":"U","TIME_SYSTEM":"UTC","ARG_OF_PERICENTER":"51.1957","SITE":"AFWTR","OBJECT_NAME":"STARLINK-3600","LAUNCH_DATE":"2022-02-25","ELEMENT_SET_NO":"999","RA_OF_ASC_NODE":"221.1408","MEAN_MOTION":"15.08790447","MEAN_MOTION_DDOT":"0.0000000000000","INCLINATION":"53.2139","RCS_SIZE":"LARGE","CENTER_NAME":"EARTH","MEAN_ANOMALY":"209.6605","COUNTRY_CODE":"US","ECCENTRICITY":"0.00016930","PERIAPSIS":"538.726","MEAN_MOTION_DOT":"0.00040969","FILE":"3513188","NORAD_CAT_ID":"51800","MEAN_ELEMENT_THEORY":"SGP4","TLE_LINE2":"2 51800  53.2139 221.1408 0001693  51.1957 209.6605 15.08790447  1301","REV_AT_EPOCH":"130","OBJECT_ID":"2022-017AJ","EPHEMERIS_TYPE":"0","BSTAR":"0.00258080000000","SEMIMAJOR_AXIS":"6918.032","EPOCH":"2022-07-13T22:00:00.999936","OBJECT_TYPE":"PAYLOAD"},{"OBJECT_NAME":"STARLINK-3592","LAUNCH_DATE":"2022-02-25","ELEMENT_SET_NO":"999","TIME_SYSTEM":"UTC","ARG_OF_PERICENTER":"42.9082","SITE":"AFWTR","TLE_LINE1":"1 51801U 22017AK  22194.91667824  .00038358  00000-0  24177-2 0  9998","PERIOD":"95.440","DECAY_DATE":null,"CLASSIFICATION_TYPE":"U","GP_ID":"208067684","APOAPSIS":"541.266","REF_FRAME":"TEME","BSTAR":"0.00241770000000","SEMIMAJOR_AXIS":"6918.000","EPOCH":"2022-07-13T22:00:00.999936","OBJECT_TYPE":"PAYLOAD","FILE":"3513188","MEAN_MOTION_DOT":"0.00038358","NORAD_CAT_ID":"51801","MEAN_ELEMENT_THEORY":"SGP4","TLE_LINE2":"2 51801  53.2138 221.1408 0002024  42.9082 143.1340 15.08800713  1303","REV_AT_EPOCH":"130","EPHEMERIS_TYPE":"0","OBJECT_ID":"2022-017AK","COUNTRY_CODE":"US","ECCENTRICITY":"0.00020240","PERIAPSIS":"538.465","MEAN_ANOMALY":"143.1340","CENTER_NAME":"EARTH","RCS_SIZE":"LARGE","MEAN_MOTION":"15.08800713","MEAN_MOTION_DDOT":"0.0000000000000","INCLINATION":"53.2138","RA_OF_ASC_NODE":"221.1408"},{"REF_FRAME":"TEME","APOAPSIS":"541.045","GP_ID":"208067933","CLASSIFICATION_TYPE":"U","TLE_LINE1":"1 51802U 22017AL  22194.91667824  .00025803  00000-0  16350-2 0  9994","PERIOD":"95.440","DECAY_DATE":null,"SITE":"AFWTR","TIME_SYSTEM":"UTC","ARG_OF_PERICENTER":"45.2630","OBJECT_NAME":"STARLINK-3557","LAUNCH_DATE":"2022-02-25","ELEMENT_SET_NO":"999","RA_OF_ASC_NODE":"221.1563","INCLINATION":"53.2171","MEAN_MOTION":"15.08804219","MEAN_MOTION_DDOT":"0.0000000000000","RCS_SIZE":"LARGE","CENTER_NAME":"EARTH","MEAN_ANOMALY":"35.5810","COUNTRY_CODE":"US","ECCENTRICITY":"0.00017210","PERIAPSIS":"538.664","TLE_LINE2":"2 51802  53.2171 221.1563 0001721  45.2630  35.5810 15.08804219  1302","MEAN_ELEMENT_THEORY":"SGP4","EPHEMERIS_TYPE":"0","REV_AT_EPOCH":"130","OBJECT_ID":"2022-017AL","FILE":"3513188","MEAN_MOTION_DOT":"0.00025803","NORAD_CAT_ID":"51802","OBJECT_TYPE":"PAYLOAD","BSTAR":"0.00163500000000","SEMIMAJOR_AXIS":"6917.990","EPOCH":"2022-07-13T22:00:00.999936"},{"GP_ID":"208068187","CLASSIFICATION_TYPE":"U","TLE_LINE1":"1 51803U 22017AM  22194.91667824  .00025195  00000-0  15969-2 0  9994","DECAY_DATE":null,"PERIOD":"95.440","SITE":"AFWTR","ARG_OF_PERICENTER":"44.2723","TIME_SYSTEM":"UTC","OBJECT_NAME":"STARLINK-3544","ELEMENT_SET_NO":"999","LAUNCH_DATE":"2022-02-25","REF_FRAME":"TEME","APOAPSIS":"541.024","MEAN_ANOMALY":"201.7608","COUNTRY_CODE":"US","ECCENTRICITY":"0.00017020","PERIAPSIS":"538.670","MEAN_ELEMENT_THEORY":"SGP4","TLE_LINE2":"2 51803  53.2132 221.1466 0001702  44.2723 201.7608 15.08806774  1303","REV_AT_EPOCH":"130","EPHEMERIS_TYPE":"0","OBJECT_ID":"2022-017AM","FILE":"3513188","MEAN_MOTION_DOT":"0.00025195","NORAD_CAT_ID":"51803","OBJECT_TYPE":"PAYLOAD","BSTAR":"0.00159690000000","EPOCH":"2022-07-13T22:00:00.999936","SEMIMAJOR_AXIS":"6917.982","RA_OF_ASC_NODE":"221.1466","INCLINATION":"53.2132","MEAN_MOTION":"15.08806774","MEAN_MOTION_DDOT":"0.0000000000000","CENTER_NAME":"EARTH","RCS_SIZE":"LARGE"},{"RCS_SIZE":"LARGE","CENTER_NAME":"EARTH","INCLINATION":"53.2147","MEAN_MOTION":"15.08816026","MEAN_MOTION_DDOT":"0.0000000000000","RA_OF_ASC_NODE":"201.1348","OBJECT_TYPE":"PAYLOAD","BSTAR":"0.00234570000000","SEMIMAJOR_AXIS":"6917.954","EPOCH":"2022-07-13T22:00:00.999936","TLE_LINE2":"2 51804  53.2147 201.1348 0001371  82.1042  93.9069 15.08816026 22759","MEAN_ELEMENT_THEORY":"SGP4","OBJECT_ID":"2022-017AN","REV_AT_EPOCH":"2275","EPHEMERIS_TYPE":"0","FILE":"3512968","MEAN_MOTION_DOT":"0.00037217","NORAD_CAT_ID":"51804","ECCENTRICITY":"0.00013710","COUNTRY_CODE":"US","PERIAPSIS":"538.870","MEAN_ANOMALY":"93.9069","APOAPSIS":"540.767","REF_FRAME":"TEME","OBJECT_NAME":"STARLINK-3601","ELEMENT_SET_NO":"999","LAUNCH_DATE":"2022-02-25","SITE":"AFWTR","TIME_SYSTEM":"UTC","ARG_OF_PERICENTER":"82.1042","CLASSIFICATION_TYPE":"U","TLE_LINE1":"1 51804U 22017AN  22194.91667824  .00037217  00000-0  23457-2 0  9994","PERIOD":"95.439","DECAY_DATE":null,"GP_ID":"208039091"},{"RA_OF_ASC_NODE":"201.1459","MEAN_MOTION":"15.08813208","MEAN_MOTION_DDOT":"0.0000000000000","INCLINATION":"53.2127","RCS_SIZE":"LARGE","CENTER_NAME":"EARTH","MEAN_ANOMALY":"144.3821","COUNTRY_CODE":"US","ECCENTRICITY":"0.00019100","PERIAPSIS":"538.506","NORAD_CAT_ID":"51805","FILE":"3513188","MEAN_MOTION_DOT":"0.00037068","MEAN_ELEMENT_THEORY":"SGP4","TLE_LINE2":"2 51805  53.2127 201.1459 0001910  51.6454 144.3821 15.08813208  1302","REV_AT_EPOCH":"130","OBJECT_ID":"2022-017AP","EPHEMERIS_TYPE":"0","BSTAR":"0.00233660000000","SEMIMAJOR_AXIS":"6917.962","EPOCH":"2022-07-13T22:00:00.999936","OBJECT_TYPE":"PAYLOAD","REF_FRAME":"TEME","APOAPSIS":"541.149","GP_ID":"208067186","PERIOD":"95.439","TLE_LINE1":"1 51805U 22017AP  22194.91667824  .00037068  00000-0  23366-2 0  9998","DECAY_DATE":null,"CLASSIFICATION_TYPE":"U","TIME_SYSTEM":"UTC","ARG_OF_PERICENTER":"51.6454","SITE":"AFWTR","OBJECT_NAME":"STARLINK-3605","ELEMENT_SET_NO":"999","LAUNCH_DATE":"2022-02-25"},{"SITE":"AFWTR","TIME_SYSTEM":"UTC","ARG_OF_PERICENTER":"44.0325","ELEMENT_SET_NO":"999","LAUNCH_DATE":"2022-02-25","OBJECT_NAME":"STARLINK-3581","GP_ID":"208067435","CLASSIFICATION_TYPE":"U","TLE_LINE1":"1 51806U 22017AQ  22194.91667824 -.00003261  00000-0 -18689-3 0  9992","DECAY_DATE":null,"PERIOD":"95.438","APOAPSIS":"541.127","REF_FRAME":"TEME","OBJECT_ID":"2022-017AQ","REV_AT_EPOCH":"130","EPHEMERIS_TYPE":"0","MEAN_ELEMENT_THEORY":"SGP4","TLE_LINE2":"2 51806  53.2169 211.1531 0001985  44.0325  76.9956 15.08837322  1308","FILE":"3513188","MEAN_MOTION_DOT":"-0.00003261","NORAD_CAT_ID":"51806","OBJECT_TYPE":"PAYLOAD","EPOCH":"2022-07-13T22:00:00.999936","SEMIMAJOR_AXIS":"6917.889","BSTAR":"-0.00018689000000","MEAN_ANOMALY":"76.9956","PERIAPSIS":"538.380","ECCENTRICITY":"0.00019850","COUNTRY_CODE":"US","CENTER_NAME":"EARTH","RCS_SIZE":"LARGE","RA_OF_ASC_NODE":"211.1531","INCLINATION":"53.2169","MEAN_MOTION_DDOT":"0.0000000000000","MEAN_MOTION":"15.08837322"},{"GP_ID":"208068686","TLE_LINE1":"1 51807U 22017AR  22194.91667824  .00043572  00000-0  27408-2 0  9998","PERIOD":"95.439","DECAY_DATE":null,"CLASSIFICATION_TYPE":"U","ARG_OF_PERICENTER":"41.3651","TIME_SYSTEM":"UTC","SITE":"AFWTR","OBJECT_NAME":"STARLINK-3606","LAUNCH_DATE":"2022-02-25","ELEMENT_SET_NO":"999","REF_FRAME":"TEME","APOAPSIS":"541.061","MEAN_ANOMALY":"39.6353","COUNTRY_CODE":"US","ECCENTRICITY":"0.00017920","PERIAPSIS":"538.582","MEAN_MOTION_DOT":"0.00043572","FILE":"3513188","NORAD_CAT_ID":"51807","MEAN_ELEMENT_THEORY":"SGP4","TLE_LINE2":"2 51807  53.2172 211.1548 0001792  41.3651  39.6353 15.08815141  1301","OBJECT_ID":"2022-017AR","REV_AT_EPOCH":"130","EPHEMERIS_TYPE":"0","BSTAR":"0.00274080000000","SEMIMAJOR_AXIS":"6917.956","EPOCH":"2022-07-13T22:00:00.999936","OBJECT_TYPE":"PAYLOAD","RA_OF_ASC_NODE":"211.1548","MEAN_MOTION":"15.08815141","MEAN_MOTION_DDOT":"0.0000000000000","INCLINATION":"53.2172","RCS_SIZE":"LARGE","CENTER_NAME":"EARTH"},{"OBJECT_NAME":"STARLINK-3609","LAUNCH_DATE":"2022-02-25","ELEMENT_SET_NO":"999","SITE":"AFWTR","TIME_SYSTEM":"UTC","ARG_OF_PERICENTER":"50.8956","CLASSIFICATION_TYPE":"U","PERIOD":"95.438","TLE_LINE1":"1 51808U 22017AS  22194.91667824  .00038612  00000-0  24314-2 0  9991","DECAY_DATE":null,"GP_ID":"208068431","APOAPSIS":"541.117","REF_FRAME":"TEME","OBJECT_TYPE":"PAYLOAD","BSTAR":"0.00243140000000","EPOCH":"2022-07-13T22:00:00.999936","SEMIMAJOR_AXIS":"6917.904","MEAN_ELEMENT_THEORY":"SGP4","TLE_LINE2":"2 51808  53.2173 211.1533 0001949  50.8956 110.0301 15.08832390  1306","REV_AT_EPOCH":"130","EPHEMERIS_TYPE":"0","OBJECT_ID":"2022-017AS","MEAN_MOTION_DOT":"0.00038612","FILE":"3513188","NORAD_CAT_ID":"51808","COUNTRY_CODE":"US","ECCENTRICITY":"0.00019490","PERIAPSIS":"538.420","MEAN_ANOMALY":"110.0301","CENTER_NAME":"EARTH","RCS_SIZE":"LARGE","INCLINATION":"53.2173","MEAN_MOTION":"15.08832390","MEAN_MOTION_DDOT":"0.0000000000000","RA_OF_ASC_NODE":"211.1533"}];
